EUTELSAT QUANTUM        
1 49056U 21069B   25336.80253256  .00000146  00000+0  00000+0 0  9991
2 49056   0.0166   9.4688 0003737 255.9868 143.0670  1.00271493 15955
EUTELSAT KONNECT VHTS   
1 53765U 22110A   25336.78378131  .00000037  00000+0  00000+0 0  9997
2 53765   0.0590 107.6754 0002757 121.6991 127.3640  1.00268775  4858
EUTELSAT HOTBIRD 13F    
1 54048U 22134A   25336.71963397  .00000107  00000+0  00000+0 0  9993
2 54048   0.0545 288.9977 0001918  66.4680 348.4275  1.00271339 11401
EUTELSAT HOTBIRD 13G    
1 54225U 22146A   25336.71963397  .00000107  00000+0  00000+0 0  9993
2 54225   0.0480 239.1654 0002127 305.0955 159.6263  1.00271061  5499
EUTELSAT 10B            
1 54259U 22157A   25336.77822618  .00000088  00000+0  00000+0 0  9996
2 54259   0.0596 104.1323 0001060  71.1589 186.7669  1.00268254 11057
EUTELSAT 36D            
1 59346U 24059A   25336.76711278  .00000000  00000+0  00000+0 0  9993
2 59346   0.0221 336.5365 0000612 323.5986  83.7439  1.00270388  6177
